[
    {
        "Altitude(m)": 607897.6054055755,
        "Argument of Periapsis(deg)": 0.0,
        "Eccentricity": 0.0,
        "Inclination(deg)": 60.0,
        "Latitude(deg)": -14.292882481313681,
        "Longitude(deg)": 91.61875987339829,
        "Mean Anomaly(deg)": -16.363600000000012,
        "RAAN(deg)": 200.0,
        "Satellite Name": "Test1 901",
        "Satellite Number": 901,
        "Semi-Major Axis(m)": 6980739.136638005,
        "Time(s)": 0
    },
    {
        "Altitude(m)": 607750.8069927825,
        "Argument of Periapsis(deg)": 0.00010418945913296404,
        "Eccentricity": 0.0,
        "Inclination(deg)": 60.0,
        "Latitude(deg)": -13.758723784648502,
        "Longitude(deg)": 91.90582855174713,
        "Mean Anomaly(deg)": -15.743493854538157,
        "RAAN(deg)": 199.99957995086027,
        "Satellite Name": "Test1 901",
        "Satellite Number": 901,
        "Semi-Major Axis(m)": 6980739.136638005,
        "Time(s)": 10
    }
]